start=new Date('2021-09-08T00:00:00.000Z').valueOf();
sats=[{"ELEMENT_SET_NO":"999","FILE":"3110443","EPHEMERIS_TYPE":"0","OBJECT_TYPE":"PAYLOAD","SITE":"AFETR","EPOCH":"2021-09-07T17:29:07.442304","DECAY_DATE":null,"OBJECT_ID":"2020-070W","RCS_SIZE":"LARGE","COUNTRY_CODE":"US","REV_AT_EPOCH":"5193","MEAN_ELEMENT_THEORY":"SGP4","PERIOD":"95.592","MEAN_MOTION_DDOT":"0.0000000000000","TLE_LINE1":"1 46552U 20070W   21250.72855836  .00001341  00000-0  10891-3 0  9996","OBJECT_NAME":"STARLINK-1649","RA_OF_ASC_NODE":"341.6576","MEAN_MOTION":"15.06398237","TLE_LINE2":"2 46552  53.0547 341.6576 0001041 108.1535 251.9568 15.06398237 51937","ARG_OF_PERICENTER":"108.1535","INCLINATION":"53.0547","MEAN_ANOMALY":"251.9568","REF_FRAME":"TEME","LAUNCH_DATE":"2020-10-06","TIME_SYSTEM":"UTC","GP_ID":"184282656","CLASSIFICATION_TYPE":"U","MEAN_MOTION_DOT":"0.00001341","CENTER_NAME":"EARTH","APOAPSIS":"547.940","PERIAPSIS":"546.498","NORAD_CAT_ID":"46552","ECCENTRICITY":"0.00010410","BSTAR":"0.00010891000000","SEMIMAJOR_AXIS":"6925.354"},{"FILE":"3110443","EPHEMERIS_TYPE":"0","ELEMENT_SET_NO":"999","PERIOD":"95.592","MEAN_MOTION_DDOT":"0.0000000000000","COUNTRY_CODE":"US","MEAN_ELEMENT_THEORY":"SGP4","REV_AT_EPOCH":"5211","RCS_SIZE":"LARGE","EPOCH":"2021-09-07T13:22:57.432288","SITE":"AFETR","OBJECT_TYPE":"PAYLOAD","OBJECT_ID":"2020-070X","DECAY_DATE":null,"OBJECT_NAME":"STARLINK-1664","TLE_LINE1":"1 46553U 20070X   21250.55760917 -.00000161  00000-0  81033-5 0  9991","MEAN_MOTION":"15.06408706","TLE_LINE2":"2 46553  53.0551 327.4256 0000961 121.7103 238.3980 15.06408706 52113","RA_OF_ASC_NODE":"327.4256","INCLINATION":"53.0551","MEAN_ANOMALY":"238.3980","ARG_OF_PERICENTER":"121.7103","TIME_SYSTEM":"UTC","LAUNCH_DATE":"2020-10-06","REF_FRAME":"TEME","PERIAPSIS":"546.521","APOAPSIS":"547.852","CENTER_NAME":"EARTH","MEAN_MOTION_DOT":"-0.00000161","CLASSIFICATION_TYPE":"U","GP_ID":"184283406","SEMIMAJOR_AXIS":"6925.322","BSTAR":"0.00000810330000","ECCENTRICITY":"0.00009610","NORAD_CAT_ID":"46553"},{"ARG_OF_PERICENTER":"109.3274","MEAN_ANOMALY":"250.7822","INCLINATION":"53.0549","REF_FRAME":"TEME","LAUNCH_DATE":"2020-10-06","TIME_SYSTEM":"UTC","GP_ID":"184283658","CLASSIFICATION_TYPE":"U","MEAN_MOTION_DOT":"0.00001434","APOAPSIS":"547.904","CENTER_NAME":"EARTH","PERIAPSIS":"546.530","NORAD_CAT_ID":"46554","ECCENTRICITY":"0.00009920","BSTAR":"0.00011513000000","SEMIMAJOR_AXIS":"6925.352","ELEMENT_SET_NO":"999","EPHEMERIS_TYPE":"0","FILE":"3110443","OBJECT_ID":"2020-070Y","DECAY_DATE":null,"SITE":"AFETR","EPOCH":"2021-09-07T14:39:16.595136","OBJECT_TYPE":"PAYLOAD","RCS_SIZE":"LARGE","COUNTRY_CODE":"US","MEAN_ELEMENT_THEORY":"SGP4","REV_AT_EPOCH":"5191","PERIOD":"95.592","MEAN_MOTION_DDOT":"0.0000000000000","TLE_LINE1":"1 46554U 20070Y   21250.61060874  .00001434  00000-0  11513-3 0  9991","OBJECT_NAME":"STARLINK-1671","RA_OF_ASC_NODE":"342.1897","TLE_LINE2":"2 46554  53.0549 342.1897 0000992 109.3274 250.7822 15.06398926 51913","MEAN_MOTION":"15.06398926"},{"INCLINATION":"53.0533","MEAN_ANOMALY":"193.5065","ARG_OF_PERICENTER":"166.5982","REF_FRAME":"TEME","TIME_SYSTEM":"UTC","LAUNCH_DATE":"2020-10-06","MEAN_MOTION_DOT":"0.00450076","CLASSIFICATION_TYPE":"U","GP_ID":"184284408","PERIAPSIS":"503.392","CENTER_NAME":"EARTH","APOAPSIS":"506.115","ECCENTRICITY":"0.00019780","NORAD_CAT_ID":"46555","SEMIMAJOR_AXIS":"6882.888","BSTAR":"0.01920200000000","ELEMENT_SET_NO":"999","FILE":"3110443","EPHEMERIS_TYPE":"0","RCS_SIZE":"LARGE","EPOCH":"2021-09-07T21:24:49.591296","SITE":"AFETR","OBJECT_TYPE":"PAYLOAD","DECAY_DATE":null,"OBJECT_ID":"2020-070Z","PERIOD":"94.714","MEAN_MOTION_DDOT":"0.0000000000000","MEAN_ELEMENT_THEORY":"SGP4","COUNTRY_CODE":"US","REV_AT_EPOCH":"5231","TLE_LINE1":"1 46555U 20070Z   21250.89224064  .00450076  00000-0  19202-1 0  9996","OBJECT_NAME":"STARLINK-1674","RA_OF_ASC_NODE":"315.3244","MEAN_MOTION":"15.20360851","TLE_LINE2":"2 46555  53.0533 315.3244 0001978 166.5982 193.5065 15.20360851 52311"},{"EPOCH":"2021-09-07T14:29:20.188032","SITE":"AFETR","OBJECT_TYPE":"PAYLOAD","OBJECT_ID":"2020-070AA","DECAY_DATE":null,"RCS_SIZE":"LARGE","REV_AT_EPOCH":"5170","COUNTRY_CODE":"US","MEAN_ELEMENT_THEORY":"SGP4","MEAN_MOTION_DDOT":"0.0000000000000","PERIOD":"95.592","ELEMENT_SET_NO":"999","FILE":"3110443","EPHEMERIS_TYPE":"0","RA_OF_ASC_NODE":"357.2132","MEAN_MOTION":"15.06397841","TLE_LINE2":"2 46556  53.0565 357.2132 0001089 117.7040 242.4059 15.06397841 51706","TLE_LINE1":"1 46556U 20070AA  21250.60370588 -.00000010  00000-0  18246-4 0  9999","OBJECT_NAME":"STARLINK-1676","REF_FRAME":"TEME","LAUNCH_DATE":"2020-10-06","TIME_SYSTEM":"UTC","ARG_OF_PERICENTER":"117.7040","INCLINATION":"53.0565","MEAN_ANOMALY":"242.4059","NORAD_CAT_ID":"46556","ECCENTRICITY":"0.00010890","BSTAR":"0.00001824600000","SEMIMAJOR_AXIS":"6925.355","GP_ID":"184283156","MEAN_MOTION_DOT":"-0.00000010","CLASSIFICATION_TYPE":"U","CENTER_NAME":"EARTH","APOAPSIS":"547.974","PERIAPSIS":"546.466"},{"CLASSIFICATION_TYPE":"U","MEAN_MOTION_DOT":"0.00001752","GP_ID":"184282907","PERIAPSIS":"546.476","APOAPSIS":"547.969","CENTER_NAME":"EARTH","ECCENTRICITY":"0.00010780","NORAD_CAT_ID":"46557","SEMIMAJOR_AXIS":"6925.358","BSTAR":"0.00013646000000","INCLINATION":"53.0557","MEAN_ANOMALY":"239.0183","ARG_OF_PERICENTER":"121.0912","REF_FRAME":"TEME","TIME_SYSTEM":"UTC","LAUNCH_DATE":"2020-10-06","TLE_LINE1":"1 46557U 20070AB  21250.78016651  .00001752  00000-0  13646-3 0  9998","OBJECT_NAME":"STARLINK-1679","RA_OF_ASC_NODE":"341.4192","MEAN_MOTION":"15.06396983","TLE_LINE2":"2 46557  53.0557 341.4192 0001078 121.0912 239.0183 15.06396983 51945","ELEMENT_SET_NO":"999","FILE":"3110443","EPHEMERIS_TYPE":"0","RCS_SIZE":"LARGE","EPOCH":"2021-09-07T18:43:26.386464","SITE":"AFETR","OBJECT_TYPE":"PAYLOAD","OBJECT_ID":"2020-070AB","DECAY_DATE":null,"PERIOD":"95.592","MEAN_MOTION_DDOT":"0.0000000000000","REV_AT_EPOCH":"5194","COUNTRY_CODE":"US","MEAN_ELEMENT_THEORY":"SGP4"},{"RA_OF_ASC_NODE":"342.5867","MEAN_MOTION":"15.06397760","TLE_LINE2":"2 46558  53.0545 342.5867 0001005 123.4513 236.6572 15.06397760 51878","TLE_LINE1":"1 46558U 20070AC  21250.52215441 -.00000146  00000-0  90942-5 0  9992","OBJECT_NAME":"STARLINK-1680","RCS_SIZE":"LARGE","SITE":"AFETR","OBJECT_TYPE":"PAYLOAD","EPOCH":"2021-09-07T12:31:54.141024","OBJECT_ID":"2020-070AC","DECAY_DATE":null,"MEAN_MOTION_DDOT":"0.0000000000000","PERIOD":"95.592","COUNTRY_CODE":"US","REV_AT_EPOCH":"5187","MEAN_ELEMENT_THEORY":"SGP4","ELEMENT_SET_NO":"999","FILE":"3110255","EPHEMERIS_TYPE":"0","ECCENTRICITY":"0.00010050","NORAD_CAT_ID":"46558","SEMIMAJOR_AXIS":"6925.355","BSTAR":"0.00000909420000","MEAN_MOTION_DOT":"-0.00000146","CLASSIFICATION_TYPE":"U","GP_ID":"184256136","PERIAPSIS":"546.524","CENTER_NAME":"EARTH","APOAPSIS":"547.916","REF_FRAME":"TEME","TIME_SYSTEM":"UTC","LAUNCH_DATE":"2020-10-06","INCLINATION":"53.0545","MEAN_ANOMALY":"236.6572","ARG_OF_PERICENTER":"123.4513"},{"PERIOD":"95.592","MEAN_MOTION_DDOT":"0.0000000000000","MEAN_ELEMENT_THEORY":"SGP4","COUNTRY_CODE":"US","REV_AT_EPOCH":"5216","RCS_SIZE":"LARGE","OBJECT_ID":"2020-070AD","DECAY_DATE":null,"EPOCH":"2021-09-07T21:48:32.694336","SITE":"AFETR","OBJECT_TYPE":"PAYLOAD","EPHEMERIS_TYPE":"0","FILE":"3110443","ELEMENT_SET_NO":"999","TLE_LINE2":"2 46559  53.0552 325.8410 0000582 109.2645 250.8407 15.06402225 52163","MEAN_MOTION":"15.06402225","RA_OF_ASC_NODE":"325.8410","OBJECT_NAME":"STARLINK-1681","TLE_LINE1":"1 46559U 20070AD  21250.90871174 -.00000252  00000-0  19565-5 0  9996","TIME_SYSTEM":"UTC","LAUNCH_DATE":"2020-10-06","REF_FRAME":"TEME","MEAN_ANOMALY":"250.8407","INCLINATION":"53.0552","ARG_OF_PERICENTER":"109.2645","SEMIMAJOR_AXIS":"6925.342","BSTAR":"0.00000195650000","ECCENTRICITY":"0.00005820","NORAD_CAT_ID":"46559","PERIAPSIS":"546.804","APOAPSIS":"547.610","CENTER_NAME":"EARTH","CLASSIFICATION_TYPE":"U","MEAN_MOTION_DOT":"-0.00000252","GP_ID":"184283909"},{"TLE_LINE1":"1 46560U 20070AE  21250.60324637 -.00001806  00000-0 -10236-3 0  9993","OBJECT_NAME":"STARLINK-1706","RA_OF_ASC_NODE":"342.2186","TLE_LINE2":"2 46560  53.0564 342.2186 0001143 122.9425 237.1674 15.06398636 51919","MEAN_MOTION":"15.06398636","ELEMENT_SET_NO":"999","FILE":"3110443","EPHEMERIS_TYPE":"0","SITE":"AFETR","OBJECT_TYPE":"PAYLOAD","EPOCH":"2021-09-07T14:28:40.486368","DECAY_DATE":null,"OBJECT_ID":"2020-070AE","RCS_SIZE":"LARGE","COUNTRY_CODE":"US","MEAN_ELEMENT_THEORY":"SGP4","REV_AT_EPOCH":"5191","PERIOD":"95.592","MEAN_MOTION_DDOT":"0.0000000000000","GP_ID":"184282657","CLASSIFICATION_TYPE":"U","MEAN_MOTION_DOT":"-0.00001806","APOAPSIS":"548.009","CENTER_NAME":"EARTH","PERIAPSIS":"546.426","NORAD_CAT_ID":"46560","ECCENTRICITY":"0.00011430","BSTAR":"-0.00010236000000","SEMIMAJOR_AXIS":"6925.353","ARG_OF_PERICENTER":"122.9425","INCLINATION":"53.0564","MEAN_ANOMALY":"237.1674","REF_FRAME":"TEME","LAUNCH_DATE":"2020-10-06","TIME_SYSTEM":"UTC"},{"MEAN_MOTION":"15.06395633","TLE_LINE2":"2 46561  53.0560 342.4494 0000926 139.9794 220.1263 15.06395633 51904","RA_OF_ASC_NODE":"342.4494","OBJECT_NAME":"STARLINK-1709","TLE_LINE1":"1 46561U 20070AF  21250.55164343 -.00000299  00000-0 -11796-5 0  9993","COUNTRY_CODE":"US","REV_AT_EPOCH":"5190","MEAN_ELEMENT_THEORY":"SGP4","MEAN_MOTION_DDOT":"0.0000000000000","PERIOD":"95.592","EPOCH":"2021-09-07T13:14:21.992352","SITE":"AFETR","OBJECT_TYPE":"PAYLOAD","DECAY_DATE":null,"OBJECT_ID":"2020-070AF","RCS_SIZE":"LARGE","FILE":"3110255","EPHEMERIS_TYPE":"0","ELEMENT_SET_NO":"999","BSTAR":"-0.00000117960000","SEMIMAJOR_AXIS":"6925.362","NORAD_CAT_ID":"46561","ECCENTRICITY":"0.00009260","APOAPSIS":"547.868","CENTER_NAME":"EARTH","PERIAPSIS":"546.586","GP_ID":"184257386","CLASSIFICATION_TYPE":"U","MEAN_MOTION_DOT":"-0.00000299","LAUNCH_DATE":"2020-10-06","TIME_SYSTEM":"UTC","REF_FRAME":"TEME","ARG_OF_PERICENTER":"139.9794","INCLINATION":"53.0560","MEAN_ANOMALY":"220.1263"}];
